SKYSAT-A                
1 39418U 13066C   26188.69292168  .00002318  00000+0  13405-3 0  9998
2 39418  97.3803 237.4366 0019918 240.8320 119.0919 15.13088169691586
SKYSAT-B                
1 40072U 14037D   26188.76862588  .00001091  00000+0  12532-3 0  9999
2 40072  98.3848 148.9086 0004951 197.6967 162.4076 14.88080032649026
SKYSAT-C1               
1 41601U 16040C   26187.62426664  .00007669  00000+0  21640-3 0  9996
2 41601  96.9556 218.2931 0001233  14.2930 345.8350 15.36647042560858
SKYSAT-C4               
1 41771U 16058B   26188.48875848  .00012130  00000+0  22367-3 0  9996
2 41771  96.9169 209.4180 0003162 130.0488 230.1042 15.49254680548612
SKYSAT-C5               
1 41772U 16058C   26187.92650128  .00006073  00000+0  18242-3 0  9993
2 41772  97.0459 227.6879 0002457 176.3166 183.8097 15.34766054546772
SKYSAT-C2               
1 41773U 16058D   26187.59401765  .00010488  00000+0  24350-3 0  9990
2 41773  97.0163 208.9626 0002559  24.3070 335.8299 15.42537650548048
SKYSAT-C3               
1 41774U 16058E   26188.44059502  .00017481  00000+0  27706-3 0  9992
2 41774  96.9001 218.5177 0002001 135.7039 224.4376 15.53450138549250
SKYSAT-C11              
1 42987U 17068A   26187.96261653  .00023637  00000+0  30510-3 0  9996
2 42987  97.4374 337.6719 0000652 158.6283 201.5000 15.58985087486325
SKYSAT-C10              
1 42988U 17068B   26187.91668503  .00008421  00000+0  25039-3 0  9991
2 42988  97.4529 324.9630 0001286 108.8962 251.2421 15.35000808485382
SKYSAT-C9               
1 42989U 17068C   26188.61788365  .00008865  00000+0  20917-3 0  9991
2 42989  97.4447 326.8037 0009184  69.0692 291.1537 15.42083508485902
SKYSAT-C8               
1 42990U 17068D   26187.92284445  .00008297  00000+0  22874-3 0  9999
2 42990  97.4547 324.8452 0001189  97.2210 262.9170 15.37378325485345
SKYSAT-C7               
1 42991U 17068E   26188.17743158  .00007466  00000+0  20626-3 0  9999
2 42991  97.4556 326.0941 0006414  47.3462 312.8322 15.37334035485449
SKYSAT-C6               
1 42992U 17068F   26187.90932487  .00006719  00000+0  20626-3 0  9995
2 42992  97.4672 325.7029 0005363 104.5619 255.6218 15.34062756485346
SKYSAT-C12              
1 43797U 18099AR  26187.85958909  .00014343  00000+0  26105-3 0  9995
2 43797  96.9257 210.3120 0005885  89.2485 270.9442 15.49578889424902
